[{"OBJECT_NAME":"KUIPER-00112","OBJECT_ID":"2025-171U","EPOCH":"2026-03-09T10:38:34.560384","MEAN_MOTION":14.80061441,"ECCENTRICITY":2.5e-5,"INCLINATION":51.9008,"RA_OF_ASC_NODE":156.6907,"ARG_OF_PERICENTER":68.2896,"MEAN_ANOMALY":291.8093,"EPHEMERIS_TYPE":0,"CLASSIFICATION_TYPE":"U","NORAD_CAT_ID":65150,"ELEMENT_SET_NO":999,"REV_AT_EPOCH":3288,"BSTAR":0.00077040168,"MEAN_MOTION_DOT":5.675e-5,"MEAN_MOTION_DDOT":0},{"OBJECT_NAME":"IRIDIUM 33 DEB","OBJECT_ID":"1997-051SY","EPOCH":"2026-03-05T00:41:02.530464","MEAN_MOTION":14.81095014,"ECCENTRICITY":0.00052917,"INCLINATION":86.3931,"RA_OF_ASC_NODE":339.058,"ARG_OF_PERICENTER":297.2212,"MEAN_ANOMALY":62.847,"EPHEMERIS_TYPE":0,"CLASSIFICATION_TYPE":"U","NORAD_CAT_ID":35848,"ELEMENT_SET_NO":999,"REV_AT_EPOCH":67907,"BSTAR":0.002045193,"MEAN_MOTION_DOT":0.00015922,"MEAN_MOTION_DDOT":0}]
